CCSDS_OMM_VERS = 2.0
CREATION_DATE  = 
ORIGINATOR     = 

OBJECT_NAME    = ELECTRON KICK STAGE R/B
OBJECT_ID      = 2025-307B
CENTER_NAME    = EARTH
REF_FRAME      = TEME
TIME_SYSTEM    = UTC
MEAN_ELEMENT_THEORY = SGP/SGP4

EPOCH          = 2025-12-28T13:12:35.227872
MEAN_MOTION    = 15.59762808
ECCENTRICITY   = .02315429
INCLINATION    = 42.0011
RA_OF_ASC_NODE = 79.9695
ARG_OF_PERICENTER = 288.4600
MEAN_ANOMALY   = 69.1209

EPHEMERIS_TYPE = 0
CLASSIFICATION_TYPE = U
NORAD_CAT_ID   = 67229
ELEMENT_SET_NO = 999
REV_AT_EPOCH   = 113
BSTAR          = .16958949E-2
MEAN_MOTION_DOT = .561207E-2
MEAN_MOTION_DDOT = .94193527E-4

CCSDS_OMM_VERS = 2.0
CREATION_DATE  = 
ORIGINATOR     = 

OBJECT_NAME    = ELECTRON R/B
OBJECT_ID      = 2025-307C
CENTER_NAME    = EARTH
REF_FRAME      = TEME
TIME_SYSTEM    = UTC
MEAN_ELEMENT_THEORY = SGP/SGP4

EPOCH          = 2025-12-21T08:41:59.140320
MEAN_MOTION    = 15.55087105
ECCENTRICITY   = .02614087
INCLINATION    = 41.9820
RA_OF_ASC_NODE = 123.1026
ARG_OF_PERICENTER = 268.1410
MEAN_ANOMALY   = 88.9482

EPHEMERIS_TYPE = 0
CLASSIFICATION_TYPE = U
NORAD_CAT_ID   = 67230
ELEMENT_SET_NO = 999
REV_AT_EPOCH   = 1
BSTAR          = .20247584E-3
MEAN_MOTION_DOT = .71881E-3
MEAN_MOTION_DDOT = .8106877E-5

CCSDS_OMM_VERS = 2.0
CREATION_DATE  = 
ORIGINATOR     = 

OBJECT_NAME    = BLUEBIRD 6
OBJECT_ID      = 2025-309A
CENTER_NAME    = EARTH
REF_FRAME      = TEME
TIME_SYSTEM    = UTC
MEAN_ELEMENT_THEORY = SGP/SGP4

EPOCH          = 2025-12-26T18:03:01.821888
MEAN_MOTION    = 15.17699903
ECCENTRICITY   = .00104773
INCLINATION    = 53.0002
RA_OF_ASC_NODE = 40.8851
ARG_OF_PERICENTER = 329.2446
MEAN_ANOMALY   = 30.7932

EPHEMERIS_TYPE = 0
CLASSIFICATION_TYPE = U
NORAD_CAT_ID   = 67232
ELEMENT_SET_NO = 999
REV_AT_EPOCH   = 40
BSTAR          = .7265072E-4
MEAN_MOTION_DOT = .1165E-4
MEAN_MOTION_DDOT = 0

CCSDS_OMM_VERS = 2.0
CREATION_DATE  = 
ORIGINATOR     = 

OBJECT_NAME    = LVM3 R/B
OBJECT_ID      = 2025-309B
CENTER_NAME    = EARTH
REF_FRAME      = TEME
TIME_SYSTEM    = UTC
MEAN_ELEMENT_THEORY = SGP/SGP4

EPOCH          = 2025-12-26T17:58:57.873216
MEAN_MOTION    = 15.19340101
ECCENTRICITY   = .0010474
INCLINATION    = 52.9350
RA_OF_ASC_NODE = 40.7629
ARG_OF_PERICENTER = 355.6984
MEAN_ANOMALY   = 4.3917

EPHEMERIS_TYPE = 0
CLASSIFICATION_TYPE = U
NORAD_CAT_ID   = 67233
ELEMENT_SET_NO = 999
REV_AT_EPOCH   = 40
BSTAR          = .72626686E-4
MEAN_MOTION_DOT = .1231E-4
MEAN_MOTION_DDOT = 0

CCSDS_OMM_VERS = 2.0
CREATION_DATE  = 
ORIGINATOR     = 

OBJECT_NAME    = 2025-310A
OBJECT_ID      = 2025-310A
CENTER_NAME    = EARTH
REF_FRAME      = TEME
TIME_SYSTEM    = UTC
MEAN_ELEMENT_THEORY = SGP/SGP4

EPOCH          = 2025-12-28T15:40:31.190592
MEAN_MOTION    = 15.11167396
ECCENTRICITY   = .01516781
INCLINATION    = 97.9655
RA_OF_ASC_NODE = 7.3790
ARG_OF_PERICENTER = 71.2220
MEAN_ANOMALY   = 290.5395

EPHEMERIS_TYPE = 0
CLASSIFICATION_TYPE = U
NORAD_CAT_ID   = 67234
ELEMENT_SET_NO = 999
REV_AT_EPOCH   = 47
BSTAR          = .11064559E-3
MEAN_MOTION_DOT = .2364E-4
MEAN_MOTION_DDOT = 0

CCSDS_OMM_VERS = 2.0
CREATION_DATE  = 
ORIGINATOR     = 

OBJECT_NAME    = 2025-310B
OBJECT_ID      = 2025-310B
CENTER_NAME    = EARTH
REF_FRAME      = TEME
TIME_SYSTEM    = UTC
MEAN_ELEMENT_THEORY = SGP/SGP4

EPOCH          = 2025-12-26T17:55:41.350368
MEAN_MOTION    = 15.48206704
ECCENTRICITY   = .03027102
INCLINATION    = 97.9613
RA_OF_ASC_NODE = 5.3742
ARG_OF_PERICENTER = 73.1908
MEAN_ANOMALY   = 290.2311

EPHEMERIS_TYPE = 0
CLASSIFICATION_TYPE = U
NORAD_CAT_ID   = 67235
ELEMENT_SET_NO = 999
REV_AT_EPOCH   = 18
BSTAR          = .24688639E-3
MEAN_MOTION_DOT = .96045E-3
MEAN_MOTION_DDOT = .2167529E-5

CCSDS_OMM_VERS = 2.0
CREATION_DATE  = 
ORIGINATOR     = 

OBJECT_NAME    = FENGYUN 4C
OBJECT_ID      = 2025-312A
CENTER_NAME    = EARTH
REF_FRAME      = TEME
TIME_SYSTEM    = UTC
MEAN_ELEMENT_THEORY = SGP/SGP4

EPOCH          = 2025-12-26T21:48:20.798784
MEAN_MOTION    = 2.27841578
ECCENTRICITY   = .7309751
INCLINATION    = 28.4641
RA_OF_ASC_NODE = 334.3215
ARG_OF_PERICENTER = 179.7824
MEAN_ANOMALY   = 181.1675

EPHEMERIS_TYPE = 0
CLASSIFICATION_TYPE = U
NORAD_CAT_ID   = 67246
ELEMENT_SET_NO = 999
REV_AT_EPOCH   = 1
BSTAR          = .21251E-2
MEAN_MOTION_DOT = .39214E-3
MEAN_MOTION_DDOT = .41525E-6

CCSDS_OMM_VERS = 2.0
CREATION_DATE  = 
ORIGINATOR     = 

OBJECT_NAME    = CZ-3B R/B
OBJECT_ID      = 2025-312B
CENTER_NAME    = EARTH
REF_FRAME      = TEME
TIME_SYSTEM    = UTC
MEAN_ELEMENT_THEORY = SGP/SGP4

EPOCH          = 2025-12-26T21:07:12.000000
MEAN_MOTION    = 2.38355124
ECCENTRICITY   = .7244185
INCLINATION    = 28.4770
RA_OF_ASC_NODE = 334.3810
ARG_OF_PERICENTER = 178.9100
MEAN_ANOMALY   = 165.0690

EPHEMERIS_TYPE = 0
CLASSIFICATION_TYPE = U
NORAD_CAT_ID   = 67247
ELEMENT_SET_NO = 999
REV_AT_EPOCH   = 0
BSTAR          = 0
MEAN_MOTION_DOT = -.243E-5
MEAN_MOTION_DDOT = .404557E-6

