ELECTRON KICK STAGE R/B 
1 67229U 25307B   25362.55040773  .00561207  94194-4  16959-2 0  9996
2 67229  42.0011  79.9695 0231542 288.4600  69.1209 15.59762808  1139
ELECTRON R/B            
1 67230U 25307C   25355.36249005  .00071881  81069-5  20248-3 0  9997
2 67230  41.9820 123.1026 0261408 268.1410  88.9482 15.55087105    19
BLUEBIRD 6              
1 67232U 25309A   25360.75210442  .00001165  00000+0  72651-4 0  9997
2 67232  53.0002  40.8851 0010477 329.2446  30.7932 15.17699903   405
LVM3 R/B                
1 67233U 25309B   25360.74928094  .00001231  00000+0  72627-4 0  9993
2 67233  52.9350  40.7629 0010474 355.6984   4.3917 15.19340101   404
2025-310A               
1 67234U 25310A   25362.65313878  .00002364  00000+0  11065-3 0  9992
2 67234  97.9655   7.3790 0151678  71.2220 290.5395 15.11167396   477
2025-310B               
1 67235U 25310B   25360.74700637  .00096045  21675-5  24689-3 0  9996
2 67235  97.9613   5.3742 0302710  73.1908 290.2311 15.48206704   186
FENGYUN 4C              
1 67246U 25312A   25360.90857406  .00039214  41525-6  21251-2 0  9998
2 67246  28.4641 334.3215 7309751 179.7824 181.1675  2.27841578    17
CZ-3B R/B               
1 67247U 25312B   25360.88000000 -.00000243  40456-6  00000+0 0  9995
2 67247  28.4770 334.3810 7244185 178.9100 165.0690  2.38355124    05
